BEESAT-4                
1 41619U 16040W   22281.40500899  .00029917  00000+0  90184-3 0  9994
2 41619  97.2049 329.1527 0010157  77.0807 283.1570 15.34212692338023
CAS-2T & KS-1Q          
1 41847U 16066G   22281.15017676  .00001647  00000+0  25732-3 0  9990
2 41847  98.5394 345.6484 0362350 232.6109 124.1578 14.38764296310552
NAYIF-1 (EO-88)         
1 42017U 17008BX  22281.25191665  .00038457  00000+0  10169-2 0  9995
2 42017  97.2578 345.9103 0004494 184.0174 176.1036 15.38299387314394
ZHUHAI-1 02 (CAS-4B)    
1 42759U 17034B   22281.45877675  .00006966  00000+0  40288-3 0  9997
2 42759  43.0171  69.4849 0010908 284.0172 175.6318 15.12689892293463
ZHUHAI-1 01 (CAS-4A)    
1 42761U 17034D   22281.48944854  .00007269  00000+0  41878-3 0  9990
2 42761  43.0174  68.0229 0011417 285.2725 181.4265 15.12776284293478
MAX VALIER SAT          
1 42778U 17036P   22281.37171341  .00017477  00000+0  62678-3 0  9994
2 42778  97.1948 318.6442 0008509 286.6723  73.3583 15.28735141294148
RADFXSAT (FOX-1B)       
1 43017U 17073E   22281.27980419  .00005485  00000+0  40891-3 0  9994
2 43017  97.6586 170.8251 0246008 177.7589 182.4791 14.82184200263829
FOX-1D (AO-92)          
1 43137U 18004AC  22281.15192478  .00021228  00000+0  69852-3 0  9990
2 43137  97.3602 355.3840 0006509 330.2094  29.8776 15.31513127263588
DIWATA-2B               
1 43678U 18084H   22281.50252259  .00001724  00000+0  17423-3 0  9997
2 43678  97.9867  56.2092 0008497 274.0097  86.0131 14.92358703214713
ES'HAIL 2               
1 43700U 18090A   22281.51349801  .00000128  00000+0  00000+0 0  9997
2 43700   0.0074 231.4629 0002444 356.8764 359.4426  1.00270076 14165
FOX-1CLIFF (AO-95)      
1 43770U 18099N   22281.17733999  .00005077  00000+0  44605-3 0  9991
2 43770  97.6094 344.5678 0012886 255.5664 104.4128 14.96941304209870
ITASAT 1                
1 43786U 18099AE  22281.42930811  .00003703  00000+0  32598-3 0  9990
2 43786  97.6128 345.7904 0013503 248.0806 111.8981 14.97022498209955
JY1SAT (JO-97)          
1 43803U 18099AX  22281.47277353  .00006819  00000+0  58663-3 0  9992
2 43803  97.6100 345.6252 0012722 244.5714 115.4192 14.97643412209983
UWE-4                   
1 43880U 18111E   22281.39027925  .00006066  00000+0  50796-3 0  9994
2 43880  97.6563 185.7061 0011127 304.8326  55.1850 14.98754316206614
NEXUS (FO-99)           
1 43937U 19003F   22281.04612445  .00027173  00000+0  83745-3 0  9999
2 43937  97.1218 310.1453 0021242 109.4565 250.8976 15.33352784207214
PSAT2 (NO-104)          
1 44354U 19036R   22280.87339656  .00143838 -13496-5  98434-3 0  9997
2 44354  28.5211 112.1008 0180902 169.1115 191.3475 15.54292867182097
JAISAT-1                
1 44419U 19038F   22281.48040163  .00019370  00000+0  92061-3 0  9994
2 44419  97.6479 252.7115 0020796  99.6407 260.7178 15.19058017180207
DUCHIFAT-3              
1 44854U 19089C   22281.06024797  .00007270  00000+0  55222-3 0  9996
2 44854  36.9656 152.4408 0007194  43.8161 105.2000 15.01811353154860
CAS-6 (TIANQIN 1)       
1 44881U 19093C   22281.34944481  .00001097  00000+0  14520-3 0  9990
2 44881  97.8859 358.9056 0014997 173.6554 186.4857 14.81849978151498
RS-44 & BREEZE-KM R/B   
1 44909U 19096E   22281.16472546  .00000037  00000+0  96177-4 0  9994
2 44909  82.5222 155.4164 0218308  56.3213 305.8496 12.79715553129920
ORBITAL FACTORY 2 (OF-2)
1 45113U 19071C   22281.53092794  .00070159  00000+0  11501-2 0  9997
2 45113  51.6356 220.7514 0007675 211.3353 148.7180 15.51779814150896
HUSKYSAT-1 (HO-107)     
1 45119U 19071J   22281.43576908  .00055385  00000+0  97146-3 0  9990
2 45119  51.6365 222.3310 0007831 208.6935 151.3624 15.49976399150856
BY70-2                  
1 45857U 20042B   22281.43764187  .00015372  00000+0  19775-2 0  9990
2 45857  97.9489 357.2589 0011485 113.0303 247.2138 14.81165004122176
SALSAT                  
1 46495U 20068K   22281.41145951  .00004321  00000+0  30835-3 0  9990
2 46495  97.7364 222.8191 0014721 253.4697 106.4912 15.04994899111174
BY70-3                  
1 46839U 20079N   22281.51265249  .00053264  00000+0  10431-2 0  9997
2 46839  97.1874 352.4135 0003644 267.6647 150.2984 15.47220561107691
RADFXSAT-2 (AO-109)     
1 47311U 21002C   22281.35762019  .00016838  00000+0  62716-3 0  9999
2 47311  60.6841 296.7207 0035224  49.5653 310.8499 15.27069783 95695
UVSQ-SAT                
1 47438U 21006AB  22281.39448268  .00011429  00000+0  58155-3 0  9997
2 47438  97.4257 338.0970 0010328 238.4493 121.5732 15.16940890 94398
DIY-1 (ARDUIQUBE)       
1 47963U 21022AH  22281.22562772  .00040302  00000+0  20273-2 0  9998
2 47963  97.5206 181.4416 0018431 100.2008 260.1305 15.16957878 84021
XW-3 (CAS-9)            
1 50466U 21131B   22281.47905422  .00000569  00000+0  20057-3 0  9993
2 50466  98.5737 358.6422 0005139 160.7500 199.3882 14.38540446 41160
TEVEL-3                 
1 50988U 22002E   22281.44379994  .00014746  00000+0  77198-3 0  9996
2 50988  97.4706 346.5719 0010315  40.6115  83.6202 15.15875806 40525
TEVEL-8                 
1 50989U 22002F   22281.45264100  .00014708  00000+0  77125-3 0  9998
2 50989  97.4718 346.6099 0009948  39.8012  83.3970 15.15821748 40522
TEVEL-5                 
1 50998U 22002Q   22281.49466322  .00014796  00000+0  76321-3 0  9996
2 50998  97.4706 346.7842 0011450  36.1700  91.3202 15.16388187 40546
TEVEL-6                 
1 50999U 22002R   22281.49397204  .00014776  00000+0  76205-3 0  9998
2 50999  97.4702 346.7806 0011545  34.8783  92.6190 15.16393557 40541
TEVEL-1                 
1 51013U 22002AF  22281.44932902  .00014721  00000+0  77134-3 0  9993
2 51013  97.4697 346.5503 0009998  40.2630  91.6762 15.15848017 40522
TEVEL-7                 
1 51062U 22002CG  22281.45454424  .00014849  00000+0  77867-3 0  9990
2 51062  97.4713 346.5969 0010297  38.1180  84.9488 15.15816611 40526
TEVEL-4                 
1 51063U 22002CH  22281.45533627  .00014835  00000+0  77830-3 0  9999
2 51063  97.4719 346.5904 0009865  39.9550  81.1310 15.15804486 40521
TEVEL-2                 
1 51069U 22002CP  22281.44643838  .00014718  00000+0  77074-3 0  9990
2 51069  97.4705 346.5581 0010009  40.9093  89.2931 15.15869233 40528
GREENCUBE               
1 53106U 22080B   22276.55284936 -.00000003  00000+0  00000+0 0  9990
2 53106  70.1655  48.8724 0008696 239.2659 120.7144  6.42557820  5260
YUZGU 9 (RS3S)          
1 53308U 98067TT  22281.50920596  .00097984  00000+0  13119-2 0  9993
2 53308  51.6385 133.4858 0003336 255.9995 104.0626 15.57198074 12324
YUZGU 7 (RS1S)          
1 53309U 98067TU  22281.50436527  .00102627  00000+0  13589-2 0  9992
2 53309  51.6380 133.4508 0003111 267.9158  92.1478 15.57474375 12274
YUZGU 11 (RS5S)         
1 53310U 98067TV  22281.50875644  .00099442  00000+0  13299-2 0  9999
2 53310  51.6383 133.4837 0002840 267.0959  92.9708 15.57223253 12307
YUZGU 12 (RS6S)         
1 53311U 98067TW  22281.49719344  .00110447  00000+0  14446-2 0  9996
2 53311  51.6377 133.4018 0003727 249.5188 110.5404 15.57765142 12326
TSIOLKOVSKY-RYAZAN 1 (*)
1 53312U 98067TX  22281.50246225  .00104462  00000+0  13835-2 0  9993
2 53312  51.6384 133.4400 0002958 273.5288  86.5366 15.57460326 12261
TSIOLKOVSKY-RYAZAN 2 (*)
1 53313U 98067TY  22281.50034659  .00102250  00000+0  13536-2 0  9991
2 53313  51.6382 133.4264 0002603 265.4665  94.6030 15.57483353 12313
YUZGU 10 (RS4S)         
1 53321U 98067TZ  22281.50830670  .00101212  00000+0  13474-2 0  9995
2 53321  51.6385 133.4804 0003174 261.5290  98.5342 15.57336591 12310
RS29S (SXC3-2110 CYCLO*)
1 53373U 22096D   22281.51156602  .00019766  00000+0  78060-3 0  9993
2 53373  97.4290 182.5384 0002290  43.9573 131.0347 15.25552930  9172
RS32S (SXC3-212 MONITO*)
1 53374U 22096E   22281.49748007  .00019779  00000+0  77842-3 0  9998
2 53374  97.4293 182.5332 0002187  32.6066  88.9139 15.25668214  9178
RS34S (SXC3-218 KUZBAS*)
1 53375U 22096F   22281.50850014  .00016190  00000+0  64087-3 0  9994
2 53375  97.4292 182.5411 0001808  35.1743 139.5153 15.25518686  9171
RS23S (SXC3-21 UTMN)    
1 53376U 22096G   22281.62310780  .00016751  00000+0  66217-3 0  9999
2 53376  97.4300 182.6575 0001886  29.2300  60.8402 15.25557067  9194
RS28S (SXC3-214 MIET-A*)
1 53377U 22096H   22281.62306081  .00016077  00000+0  63538-3 0  9993
2 53377  97.4295 182.6607 0001867  27.3268  69.0099 15.25573302  9198
RS26S (KAI-1)           
1 53378U 22096J   22281.49352578  .00014268  00000+0  56544-3 0  9990
2 53378  97.4295 182.5321 0001456  36.4914  69.3871 15.25507604  9175
RS19S (SXC3-219 ISOI)   
1 53381U 22096M   22281.54470201  .00016767  00000+0  65341-3 0  9995
2 53381  97.4296 182.6220 0002342 217.0849 265.3281 15.26032331  9183
RS21S (CUBESX-HSE-2)    
1 53383U 22096P   22281.60376204  .00015957  00000+0  62154-3 0  9991
2 53383  97.4293 182.6861 0002586 216.3295 241.4113 15.26058684  9199
RS30S (SXC3-217 SIREN)  
1 53384U 22096Q   22281.60118493  .00015346  00000+0  59830-3 0  9995
2 53384  97.4290 182.6831 0002720 218.0534 226.8788 15.26037157  9196
RS20S (GEOSCAN-EDELVEIS)
1 53385U 22096R   22281.59347558  .00020882  00000+0  80214-3 0  9991
2 53385  97.4292 182.6976 0002771 221.4185 233.1627 15.26463944  9229
RS33S (SXC3-215 VIZARD) 
1 53386U 22096S   22281.52192421  .00025077  00000+0  94939-3 0  9992
2 53386  97.4292 182.6536 0003505 224.1179 260.9364 15.26907895  9203
